NORAD_CAT_ID,OBJECT_NAME,OBJECT_TYPE,EPOCH,MEAN_MOTION,ECCENTRICITY,INCLINATION,RA_OF_ASC_NODE,ARG_OF_PERICENTER,MEAN_ANOMALY,BSTAR,MEAN_MOTION_DOT,MEAN_MOTION_DDOT,TLE_LINE0,TLE_LINE1,TLE_LINE2,SEMIMAJOR_AXIS,PERIOD,APOGEE,PERIGEE,DECAYED
49432.0,STARLINK-3158,PAYLOAD,2024-04-19 04:56:53,15.08860467,0.0001432,53.2171,74.3296,98.3915,261.724,0.00034047,5.138e-05,0.0,0 STARLINK-3158,1 49432U 21104AA  24110.20617306  .00005138  00000-0  34047-3 0  9991,2 49432  53.2171  74.3296 0001432  98.3915 261.7240 15.08860467135768,6917.818,95.436,540.673,538.692,0.0
49432.0,STARLINK-3158,PAYLOAD,2024-04-19 06:32:16,15.08863053,0.0001469,53.217,74.0323,110.6711,249.4438,0.00037622,5.708e-05,0.0,0 STARLINK-3158,1 49432U 21104AA  24110.27241073  .00005708  00000-0  37622-3 0  9997,2 49432  53.2170  74.0323 0001469 110.6711 249.4438 15.08863053134694,6917.81,95.436,540.691,538.659,0.0
49432.0,STARLINK-3158,PAYLOAD,2024-04-20 06:23:02,15.08886756,0.0001281,53.2171,69.5729,101.2846,258.829,0.00081519,0.00012726,0.0,0 STARLINK-3158,1 49432U 21104AA  24111.26599653  .00012726  00000-0  81519-3 0  9999,2 49432  53.2171  69.5729 0001281 101.2846 258.8290 15.08886756135923,6917.737,95.435,540.489,538.716,0.0
49432.0,STARLINK-3158,PAYLOAD,2024-04-21 04:38:27,15.08834637,0.0001612,53.2191,65.4083,102.9181,257.1991,-0.00043859,-7.26e-05,0.0,0 STARLINK-3158,1 49432U 21104AA  24112.19337659 -.00007260  00000-0 -43859-3 0  9992,2 49432  53.2191  65.4083 0001612 102.9181 257.1991 15.08834637136068,6917.897,95.438,540.877,538.647,0.0
49432.0,STARLINK-3158,PAYLOAD,2024-04-21 06:13:50,15.08832261,0.0001543,53.218,65.1141,106.8187,253.2974,-0.00046722,-7.715e-05,0.0,0 STARLINK-3158,1 49432U 21104AA  24112.25961750 -.00007715  00000-0 -46722-3 0  9991,2 49432  53.2180  65.1141 0001543 106.8187 253.2974 15.08832261134999,6917.904,95.438,540.836,538.702,0.0
49432.0,STARLINK-3158,PAYLOAD,2024-04-22 02:53:52,15.08839699,0.0002461,53.2161,61.2531,65.4779,294.6469,-0.00028375,-4.802e-05,0.0,0 STARLINK-3158,1 49432U 21104AA  24113.12074215 -.00004802  00000-0 -28375-3 0  9997,2 49432  53.2161  61.2531 0002461  65.4779 294.6469 15.08839699136201,6917.881,95.438,541.449,538.044,0.0
49432.0,STARLINK-3158,PAYLOAD,2024-04-22 06:04:36,15.08861419,0.0001737,53.2177,60.652,100.8447,259.2741,5.2954e-05,5.55e-06,0.0,0 STARLINK-3158,1 49432U 21104AA  24113.25320481  .00000555  00000-0  52954-4 0  9990,2 49432  53.2177  60.6520 0001737 100.8447 259.2741 15.08861419136227,6917.815,95.436,540.882,538.478,0.0
49432.0,STARLINK-3158,PAYLOAD,2024-04-22 20:23:07,15.08818768,0.0001298,53.2177,57.978,111.1964,248.9167,0.00019518,2.818e-05,0.0,0 STARLINK-3158,1 49432U 21104AA  24113.84939408  .00002818  00000-0  19518-3 0  9992,2 49432  53.2177  57.9780 0001298 111.1964 248.9167 15.08818768136311,6917.945,95.439,540.708,538.912,0.0
49432.0,STARLINK-3158,PAYLOAD,2024-04-23 02:44:39,15.08833548,0.0002028,53.2189,56.7905,106.5202,253.6013,0.00034899,5.269e-05,0.0,0 STARLINK-3158,1 49432U 21104AA  24114.11434978  .00005269  00000-0  34899-3 0  9997,2 49432  53.2189  56.7905 0002028 106.5202 253.6013 15.08833548136355,6917.9,95.438,541.168,538.362,0.0
49432.0,STARLINK-3158,PAYLOAD,2024-04-23 05:55:26,15.08835666,0.0002183,53.2194,56.1864,103.6064,256.5172,0.0003714,5.627e-05,0.0,0 STARLINK-3158,1 49432U 21104AA  24114.24682955  .00005627  00000-0  37140-3 0  9991,2 49432  53.2194  56.1864 0002183 103.6064 256.5172 15.08835666135298,6917.894,95.438,541.269,538.248,0.0
49432.0,STARLINK-3158,PAYLOAD,2024-04-23 20:13:54,15.08838004,0.0002394,53.2165,53.5083,121.3014,238.8213,-7.9406e-05,-1.552e-05,0.0,0 STARLINK-3158,1 49432U 21104AA  24114.84298942 -.00001552  00000-0 -79406-4 0  9993,2 49432  53.2165  53.5083 0002394 121.3014 238.8213 15.08838004135384,6917.886,95.438,541.408,538.095,0.0
49432.0,STARLINK-3158,PAYLOAD,2024-04-24 05:46:12,15.08853648,0.0001932,53.218,51.7287,119.6305,240.488,0.00013222,1.818e-05,0.0,0 STARLINK-3158,1 49432U 21104AA  24115.24042131  .00001818  00000-0  13222-3 0  9991,2 49432  53.2180  51.7287 0001932 119.6305 240.4880 15.08853648136524,6917.839,95.437,541.04,538.367,0.0
49432.0,STARLINK-3158,PAYLOAD,2024-04-25 02:26:13,15.08842691,0.0001967,53.2183,47.8638,118.2248,241.8942,3.1344e-05,2.11e-06,0.0,0 STARLINK-3158,1 49432U 21104AA  24116.10154750  .00000211  00000-0  31344-4 0  9990,2 49432  53.2183  47.8638 0001967 118.2248 241.8942 15.08842691136656,6917.872,95.437,541.098,538.376,0.0
49432.0,STARLINK-3158,PAYLOAD,2024-04-26 00:41:38,15.08842751,0.000187,53.2196,43.704,122.5556,237.5617,4.1036e-05,3.65e-06,0.0,0 STARLINK-3158,1 49432U 21104AA  24117.02891230  .00000365  00000-0  41036-4 0  9992,2 49432  53.2196  43.7040 0001870 122.5556 237.5617 15.08842751136798,6917.872,95.437,541.031,538.443,0.0
49432.0,STARLINK-3158,PAYLOAD,2024-04-26 11:49:19,15.08845568,0.0001436,53.2194,41.6231,95.2865,264.8291,-4.3294e-05,-9.77e-06,0.0,0 STARLINK-3158,1 49432U 21104AA  24117.49259062 -.00000977  00000-0 -43294-4 0  9993,2 49432  53.2194  41.6231 0001436  95.2865 264.8291 15.08845568135780,6917.863,95.437,540.722,538.735,0.0
49432.0,STARLINK-3158,PAYLOAD,2024-04-27 03:43:10,15.08859161,0.0001529,53.219,38.6495,109.8403,250.2754,0.00021147,3.081e-05,0.0,0 STARLINK-3158,1 49432U 21104AA  24118.15497855  .00003081  00000-0  21147-3 0  9990,2 49432  53.2190  38.6495 0001529 109.8403 250.2754 15.08859161136965,6917.822,95.436,540.745,538.629,0.0
49432.0,STARLINK-3158,PAYLOAD,2024-04-27 05:18:33,15.08859367,0.0001569,53.219,38.3497,112.8716,247.2442,0.00021327,3.11e-05,0.0,0 STARLINK-3158,1 49432U 21104AA  24118.22121712  .00003110  00000-0  21327-3 0  9997,2 49432  53.2190  38.3497 0001569 112.8716 247.2442 15.08859367135898,6917.821,95.436,540.772,538.601,0.0
49432.0,STARLINK-3158,PAYLOAD,2024-04-27 19:37:03,15.088314,0.0001697,53.2186,35.678,89.6949,270.4238,4.23e-06,-2.21e-06,0.0,0 STARLINK-3158,1 49432U 21104AA  24118.81740218 -.00000221  00000-0  42300-5 0  9997,2 49432  53.2186  35.6780 0001697  89.6949 270.4238 15.08831400137069,6917.907,95.438,540.946,538.598,0.0
49432.0,STARLINK-3158,PAYLOAD,2024-04-28 11:30:54,15.08833768,0.0001531,53.2191,32.7045,81.7187,278.3978,2.4394e-05,1e-06,0.0,0 STARLINK-3158,1 49432U 21104AA  24119.47980198  .00000100  00000-0  24394-4 0  9990,2 49432  53.2191  32.7045 0001531  81.7187 278.3978 15.08833768136089,6917.899,95.438,540.824,538.705,0.0
49432.0,STARLINK-3158,PAYLOAD,2024-04-28 22:38:36,15.08835339,0.0001455,53.2189,30.6224,81.2741,278.8416,5.6174e-05,6.06e-06,0.0,0 STARLINK-3158,1 49432U 21104AA  24119.94348116  .00000606  00000-0  56174-4 0  9992,2 49432  53.2189  30.6224 0001455  81.2741 278.8416 15.08835339136154,6917.895,95.438,540.766,538.753,0.0
49432.0,STARLINK-3158,PAYLOAD,2024-04-29 01:49:22,15.0884963,0.000145,53.2189,30.0246,93.3943,266.7215,-5.7148e-05,-1.198e-05,0.0,0 STARLINK-3158,1 49432U 21104AA  24120.07595493 -.00001198  00000-0 -57148-4 0  9991,2 49432  53.2189  30.0246 0001450  93.3943 266.7215 15.08849630137259,6917.851,95.437,540.719,538.713,0.0
49432.0,STARLINK-3158,PAYLOAD,2024-04-29 22:29:23,15.08844681,0.0001625,53.2194,26.1613,85.0778,275.04,-2.0366e-05,-6.12e-06,0.0,0 STARLINK-3158,1 49432U 21104AA  24120.93707889 -.00000612  00000-0 -20366-4 0  9992,2 49432  53.2194  26.1613 0001625  85.0778 275.0400 15.08844681136302,6917.866,95.437,540.855,538.607,0.0
49432.0,STARLINK-3158,PAYLOAD,2024-04-30 00:04:47,15.08834875,0.0001593,53.2193,25.8648,75.9445,284.1725,0.00010794,1.43e-05,0.0,0 STARLINK-3158,1 49432U 21104AA  24121.00332181  .00001430  00000-0  10794-3 0  9990,2 49432  53.2193  25.8648 0001593  75.9445 284.1725 15.08834875137393,6917.896,95.438,540.863,538.659,0.0
49432.0,STARLINK-3158,PAYLOAD,2024-04-30 20:44:47,15.08843238,0.000116,53.2192,21.998,79.8466,280.2657,0.00012239,1.661e-05,0.0,0 STARLINK-3158,1 49432U 21104AA  24121.86443374  .00001661  00000-0  12239-3 0  9993,2 49432  53.2192  21.9980 0001160  79.8466 280.2657 15.08843238137523,6917.87,95.437,540.538,538.933,0.0
49432.0,STARLINK-3158,PAYLOAD,2024-04-30 22:20:10,15.08844598,0.0001253,53.2198,21.7006,75.4095,284.7036,0.0001298,1.779e-05,0.0,0 STARLINK-3158,1 49432U 21104AA  24121.93067292  .00001779  00000-0  12980-3 0  9995,2 49432  53.2198  21.7006 0001253  75.4095 284.7036 15.08844598136450,6917.866,95.437,540.598,538.865,0.0
49432.0,STARLINK-3158,PAYLOAD,2024-05-01 03:06:18,15.08860289,0.0001458,53.2191,20.8048,93.6036,266.5123,3.3766e-05,2.5e-06,0.0,0 STARLINK-3158,1 49432U 21104AA  24122.12938429  .00000250  00000-0  33766-4 0  9995,2 49432  53.2191  20.8048 0001458  93.6036 266.5123 15.08860289137566,6917.818,95.436,540.692,538.675,0.0
49432.0,STARLINK-3158,PAYLOAD,2024-05-01 23:46:20,15.08845492,0.0001409,53.2189,16.9377,92.6502,267.4651,3.1552e-05,2.14e-06,0.0,0 STARLINK-3158,1 49432U 21104AA  24122.99051004  .00000214  00000-0  31552-4 0  9996,2 49432  53.2189  16.9377 0001409  92.6502 267.4651 15.08845492137696,6917.864,95.437,540.703,538.754,0.0
49432.0,STARLINK-3158,PAYLOAD,2024-05-02 09:18:39,15.08841535,0.0001364,53.2188,15.1586,95.5756,264.5392,1.584e-05,-3.6e-07,0.0,0 STARLINK-3158,1 49432U 21104AA  24123.38795247 -.00000036  00000-0  15840-4 0  9999,2 49432  53.2188  15.1586 0001364  95.5756 264.5392 15.08841535136672,6917.876,95.437,540.684,538.797,0.0
49432.0,STARLINK-3158,PAYLOAD,2024-05-02 20:26:21,15.08843203,0.0001465,53.2184,13.0814,98.9498,261.1661,-9.4612e-05,-1.794e-05,0.0,0 STARLINK-3158,1 49432U 21104AA  24123.85163560 -.00001794  00000-0 -94612-4 0  9995,2 49432  53.2184  13.0814 0001465  98.9498 261.1661 15.08843203137825,6917.871,95.437,540.749,538.722,0.0
49432.0,STARLINK-3158,PAYLOAD,2024-05-03 02:47:52,15.08851379,0.0001211,53.217,11.887,88.5612,271.5519,-2.4112e-05,-6.72e-06,0.0,0 STARLINK-3158,1 49432U 21104AA  24124.11658557 -.00000672  00000-0 -24112-4 0  9992,2 49432  53.2170  11.8870 0001211  88.5612 271.5519 15.08851379137864,6917.846,95.437,540.548,538.873,0.0
